OBJECT_NAME,OBJECT_ID,EPOCH,MEAN_MOTION,ECCENTRICITY,INCLINATION,RA_OF_ASC_NODE,ARG_OF_PERICENTER,MEAN_ANOMALY,EPHEMERIS_TYPE,CLASSIFICATION_TYPE,NORAD_CAT_ID,ELEMENT_SET_NO,REV_AT_EPOCH,BSTAR,MEAN_MOTION_DOT,MEAN_MOTION_DDOT
COSMO-SKYMED 1,2007-023A,2026-07-13T19:14:44.650752,14.97215122,.0001309,97.8844,26.8829,103.8934,256.2433,0,U,31598,999,3377,.11993E-3,.1327E-4,0
COSMOS 2428,2007-029A,2026-07-13T16:36:41.759136,14.12933515,.0007203,70.9381,298.8270,84.1445,276.0497,0,U,31792,999,98189,.13714E-3,.208E-5,0
SL-16 R/B,2007-029B,2026-07-13T15:08:23.527104,14.14851164,.0002011,70.9746,267.6415,256.2334,210.5648,0,U,31793,999,98318,.80401E-4,.107E-5,0
KORONAS-FOTON,2009-003A,2026-07-13T20:59:36.324672,15.46278814,.0012285,82.4305,144.4094,66.2875,293.9661,0,U,33504,999,96522,.16498E-3,.8185E-4,0
CZ-2C R/B,2011-030B,2026-07-13T20:30:25.125408,14.81530988,.0050869,97.8668,149.7626,300.6468,120.5990,0,U,37731,999,80877,.72806E-4,.528E-5,0
H-2A R/B,2012-025E,2026-07-13T20:21:15.943680,14.95835838,.0042419,98.4847,172.1965,259.6751,99.9685,0,U,38341,999,76707,.55695E-4,.561E-5,0
SHIJIAN-16 (SJ-16),2013-057A,2026-07-13T20:22:10.490592,14.92666950,.0015855,74.9737,306.1841,167.9682,192.1888,0,U,39358,999,69032,.32165E-4,.303E-5,0
SL-4 R/B,2014-021B,2026-07-12T22:02:48.743808,15.42452959,.00897962,51.6063,84.6655,200.0922,159.6520,0,U,39679,999,67558,.14899335E-3,.7119E-4,0
ALOS-2,2014-029A,2026-07-13T20:29:58.343136,14.79472600,.0001597,97.9230,291.6367,91.6484,268.4911,0,U,39766,999,65552,.12134E-3,.855E-5,0
YAOGAN-29,2015-069A,2026-07-13T21:28:46.252992,14.83104215,.0000824,98.0024,223.5682,13.1391,346.9843,0,U,41038,999,57458,.54536E-5,-.1E-6,0
ASTRO-H (HITOMI),2016-012A,2026-07-13T11:10:10.204032,15.10628471,.00096072,30.9985,264.4618,157.9025,202.2028,0,U,41337,999,57126,.79367893E-4,.1442E-4,0
HXMT (HUIYAN),2017-034A,2026-07-13T20:07:48.548640,15.18681428,.0032433,43.0153,34.6152,312.4391,47.3717,0,U,42758,999,50171,.12124E-3,.2347E-4,0
SAOCOM 1A,2018-076A,2026-07-13T19:15:53.800992,14.82145939,.0001443,97.8884,21.1647,85.9451,274.1927,0,U,43641,999,42004,.21153E-4,.116E-5,0
H-2A R/B,2018-084L,2026-07-13T16:05:39.161760,15.46162360,.0020653,98.8538,79.3654,306.2061,53.7274,0,U,43682,999,42521,.25198E-3,.12342E-3,0
SAOCOM 1B,2020-059A,2026-07-13T20:00:50.446080,14.82159127,.0001589,97.8889,20.2920,81.0603,279.0789,0,U,46265,999,31743,.52487E-4,.366E-5,0
CSS (TIANHE),2021-035A,2026-07-13T20:51:12.017376,15.58061298,.0002698,41.4690,159.8761,307.1688,52.8903,0,U,48274,999,29733,.14357E-4,.78E-5,0
COSMOS 2550,2021-056A,2026-07-13T16:39:44.222112,15.33820895,.0008386,67.1415,19.7235,269.4990,90.5204,0,U,48865,999,28278,.22411E-4,.545E-5,0
CZ-2C R/B,2022-058K,2026-07-13T17:06:32.323104,15.63776385,.0030339,50.1856,25.2976,16.2889,343.9054,0,U,52794,999,22979,.27061E-3,.25999E-3,0
CZ-2C R/B,2022-132E,2026-07-13T13:12:08.201088,15.74823757,.0009735,97.2888,202.8146,350.0355,10.0715,0,U,54039,999,21009,.32043E-3,.47308E-3,0
GSLV R/B,2022-138AN,2026-07-13T20:24:21.887712,14.97378980,.0023676,87.3818,124.0310,56.6089,303.7404,0,U,54149,999,20280,.10724E-3,.1282E-4,0
XRISM,2023-137A,2026-07-13T07:44:45.047904,15.12661465,.00078585,31.0007,190.2776,227.7814,132.2158,0,U,57800,999,15682,.10940137E-3,.206E-4,0
ACS3,2024-077B,2026-07-11T17:46:17.954112,13.95349463,.01210111,97.1723,106.0854,40.7850,320.2298,0,U,59588,999,11146,.713075E-2,.10248E-3,0
SPACEMOBILE-003,2024-163A,2026-07-12T02:59:11.082912,15.20757146,.00039532,52.9645,194.7701,176.8899,183.2120,0,U,61045,999,10156,.15017438E-4,.8E-7,0
SPACEMOBILE-005,2024-163B,2026-07-13T02:14:56.738400,15.20746160,.00085164,52.9757,190.2542,188.4778,171.6074,0,U,61046,999,10170,.29081362E-4,.32E-5,0
SPACEMOBILE-001,2024-163C,2026-07-11T10:46:43.885920,15.20792937,.00074751,52.9736,197.5273,183.3179,176.7767,0,U,61047,999,10145,.28550562E-4,.309E-5,0
SPACEMOBILE-002,2024-163D,2026-07-13T01:49:27.471360,15.20818302,.00063791,52.9787,190.0866,191.8159,168.2686,0,U,61048,999,10170,.61596906E-3,.13464E-3,0
SPACEMOBILE-004,2024-163E,2026-07-12T09:38:01.727232,15.20795560,.0006853,52.9682,192.9673,216.7757,143.2768,0,U,61049,999,10160,.58302E-3,.12717E-3,0
CZ-8A R/B,2025-231K,2026-07-13T12:49:39.947232,14.30161916,.0116553,50.0044,287.2242,316.7652,42.4160,0,U,66004,999,3871,.28262E-4,-.85E-6,0
SZ-21 MODULE,2025-246C,2026-07-13T05:37:56.859168,15.78673057,.0007887,41.4707,144.8204,207.7772,152.2653,0,U,66515,999,3785,.20511E-3,.36875E-3,0
SPACEMOBILE-006,2025-309A,2026-07-13T10:24:55.622304,15.18650721,.00103071,52.9936,211.4033,209.4952,150.5461,0,U,67232,999,3058,.3680225E-4,.45E-5,0
